OBJECT_NAME,OBJECT_ID,EPOCH,MEAN_MOTION,ECCENTRICITY,INCLINATION,RA_OF_ASC_NODE,ARG_OF_PERICENTER,MEAN_ANOMALY,EPHEMERIS_TYPE,CLASSIFICATION_TYPE,NORAD_CAT_ID,ELEMENT_SET_NO,REV_AT_EPOCH,BSTAR,MEAN_MOTION_DOT,MEAN_MOTION_DDOT
ATLAS CENTAUR 2,1963-047A,2026-06-16T05:16:30.109152,14.12517904,.05459895,30.3581,4.8039,228.9842,126.2302,0,U,694,999,14556,.1271124E-3,.1167E-4,0
THOR AGENA D R/B,1964-002A,2026-06-16T07:40:20.142048,14.34065289,.00323611,99.1154,186.0048,333.1611,26.7896,0,U,733,999,25243,.62495485E-4,.127E-5,0
SL-3 R/B,1964-053B,2026-06-16T00:42:45.945216,14.61426286,.00810377,65.0776,42.9067,261.4792,97.7118,0,U,877,999,28116,.38974376E-4,.76E-6,0
SL-8 R/B,1967-045B,2026-06-16T06:07:51.852000,14.45681609,.00634696,74.0095,163.9988,148.6400,211.8568,0,U,2802,999,10326,.45398504E-4,.137E-5,0
SL-8 R/B,1968-040B,2026-06-16T04:26:29.815584,15.03812025,.00259692,74.0305,112.3399,265.6659,94.1562,0,U,3230,999,10481,.1922814E-3,.262E-4,0
OAO 2,1968-110A,2026-06-16T00:28:25.861728,14.47351669,.00062308,34.9941,76.1969,265.5415,94.4564,0,U,3597,999,3335,.50677429E-4,.169E-5,0
ISIS 1,1969-009A,2026-06-16T05:13:42.773952,11.30433754,.17062071,88.4427,144.5062,250.1839,90.7899,0,U,3669,999,35966,.20771785E-4,.28E-6,0
SERT 2,1970-009A,2026-06-16T07:24:27.495648,13.58739100,.00039429,99.2841,105.0689,276.1893,199.3087,0,U,4327,999,79328,.48887749E-4,-.6E-7,0
SL-3 R/B,1971-028B,2026-06-16T03:54:30.377376,15.69655763,.00139694,81.2338,289.6237,283.7991,76.1711,0,U,5118,999,408,.36875487E-3,.44048E-3,0
ASTEX 1,1971-089A,2026-06-16T00:54:21.664800,14.50851038,.00178268,92.6998,183.4857,109.6746,250.6386,0,U,5560,999,87656,.96260584E-4,.379E-5,0
SL-8 R/B,1971-119B,2026-06-16T06:04:18.771456,14.39501650,.05437676,73.8873,351.2135,297.3688,57.3126,0,U,5730,999,66966,.14043821E-3,.27E-4,0
OAO 3 (COPERNICUS),1972-065A,2026-06-16T03:12:40.368384,14.60059824,.00072861,35.0058,96.4066,247.5605,128.7640,0,U,6153,999,86059,.52836815E-4,.237E-5,0
ATLAS CENTAUR R/B,1972-065B,2026-06-16T04:43:37.996320,14.77919507,.00329161,35.0012,88.3467,120.3858,240.0103,0,U,6155,999,85584,.13266442E-3,.955E-5,0
SL-8 R/B,1975-112B,2026-06-16T06:36:54.359424,14.38245877,.0016869,74.0594,197.5509,264.6163,95.3066,0,U,8459,999,64604,.72312282E-4,.194E-5,0
SL-3 R/B,1977-057B,2026-06-16T05:56:11.507424,15.47866955,.0005419,97.5832,343.7425,289.4334,70.6329,0,U,10114,999,68356,.1828469E-3,.9418E-4,0
SEASAT 1,1978-064A,2026-06-16T06:30:33.220512,14.46242807,.0001848,108.0171,332.3660,240.5085,119.5877,0,U,10967,999,52076,.94819E-4,.202E-5,0
SL-14 R/B,1979-011B,2026-06-16T00:51:02.257920,14.92013409,.00175258,82.5238,3.2474,89.0937,271.2290,0,U,11267,999,54344,.42094261E-4,.454E-5,0
SL-8 R/B,1979-089B,2026-06-16T00:37:17.880096,14.42403577,.00149567,74.0694,269.0071,53.2140,307.0386,0,U,11574,999,45028,.61277427E-4,.177E-5,0
SL-14 R/B,1980-005B,2026-06-16T04:19:40.499040,14.91028242,.0015404,82.5140,213.7954,189.2612,170.8326,0,U,11672,999,49116,.38908379E-4,.411E-5,0
SL-8 R/B,1981-003B,2026-06-16T03:51:46.353024,15.14198058,.02506891,82.9361,198.7254,194.7673,164.6150,0,U,12139,999,32956,.33909281E-3,.13874E-3,0
SL-3 R/B,1981-046B,2026-06-16T06:46:21.721440,15.44181069,.00186431,81.2290,171.1593,40.7936,319.4699,0,U,12465,999,45363,.20230968E-3,.9368E-4,0
SL-3 R/B,1981-103B,2026-06-16T06:21:53.851968,15.22280340,.00118758,81.1592,97.7165,319.3391,40.6953,0,U,12904,999,98822,.15966117E-3,.3706E-4,0
SL-3 R/B,1982-013B,2026-06-16T05:41:23.063136,15.22782194,.00213075,81.1741,45.1734,204.1390,155.8847,0,U,13068,999,41934,.11210674E-3,.2661E-4,0
SL-3 R/B,1982-039B,2026-06-16T07:20:55.094208,15.10534144,.00289482,81.1446,102.1042,359.1649,0.9522,0,U,13154,999,39652,.1783489E-3,.2992E-4,0
SL-3 R/B,1982-079B,2026-06-16T06:19:43.832064,15.25782852,.00236158,81.1468,76.5799,188.6357,171.4475,0,U,13403,999,39272,.13396135E-3,.3475E-4,0
SL-14 R/B,1982-092B,2026-06-16T04:30:19.975680,14.86747357,.00197625,82.5682,49.2387,338.6536,138.5858,0,U,13553,999,34356,.37567069E-4,.36E-5,0
SL-3 R/B,1983-010B,2026-06-16T06:49:01.217568,15.49224372,.0015581,81.1018,241.0770,65.4924,294.7945,0,U,13819,999,37319,.21907803E-3,.12039E-3,0
SL-3 R/B,1983-075B,2026-06-16T06:56:54.405312,15.40479137,.00192362,97.6097,175.7572,232.5085,127.4412,0,U,14208,999,34532,.19966466E-3,.8053E-4,0
COSMOS 1536,1984-013A,2026-06-15T23:33:06.327072,15.25041191,.00126943,82.5440,10.0462,300.2317,59.7663,0,U,14699,999,28759,.20356699E-3,.5128E-4,0
SL-14 R/B,1984-027B,2026-06-16T04:55:07.433760,14.86059084,.00182566,82.5411,152.6383,12.3608,347.8052,0,U,14820,999,26226,.39079051E-4,.367E-5,0
