{
  "version": 1,
  "fetchedAt": "2026-06-16T16:59:36.124Z",
  "source": "celestrak-gp",
  "counts": {
    "station": 25,
    "satellite": 400,
    "debris": 250
  },
  "objects": [
    {
      "id": "694",
      "name": "ATLAS CENTAUR 2",
      "noradId": 694,
      "line1": "1 00694U 63047A   26167.21979293  .00001167  00000+0  12711-3 0  9992",
      "line2": "2 00694  30.3581   4.8039 0545989 228.9842 126.2302 14.12517904145561",
      "category": "satellite"
    },
    {
      "id": "733",
      "name": "THOR AGENA D R/B",
      "noradId": 733,
      "line1": "1 00733U 64002A   26167.31967757  .00000127  00000+0  62495-4 0  9991",
      "line2": "2 00733  99.1154 186.0048 0032361 333.1611  26.7896 14.34065289252430",
      "category": "satellite"
    },
    {
      "id": "877",
      "name": "SL-3 R/B",
      "noradId": 877,
      "line1": "1 00877U 64053B   26167.02969844  .00000076  00000+0  38974-4 0  9991",
      "line2": "2 00877  65.0776  42.9067 0081037 261.4792  97.7118 14.61426286281164",
      "category": "satellite"
    },
    {
      "id": "2802",
      "name": "SL-8 R/B",
      "noradId": 2802,
      "line1": "1 02802U 67045B   26167.25546125  .00000137  00000+0  45399-4 0  9990",
      "line2": "2 02802  74.0095 163.9988 0063469 148.6400 211.8568 14.45681609103261",
      "category": "satellite"
    },
    {
      "id": "3230",
      "name": "SL-8 R/B",
      "noradId": 3230,
      "line1": "1 03230U 68040B   26167.18506731  .00002620  00000+0  19228-3 0  9993",
      "line2": "2 03230  74.0305 112.3399 0025969 265.6659  94.1562 15.03812025104815",
      "category": "satellite"
    },
    {
      "id": "3597",
      "name": "OAO 2",
      "noradId": 3597,
      "line1": "1 03597U 68110A   26167.01974377  .00000169  00000+0  50677-4 0  9994",
      "line2": "2 03597  34.9941  76.1969 0006230 265.5415  94.4564 14.47351669 33355",
      "category": "satellite"
    },
    {
      "id": "3669",
      "name": "ISIS 1",
      "noradId": 3669,
      "line1": "1 03669U 69009A   26167.21785618  .00000028  00000+0  20772-4 0  9999",
      "line2": "2 03669  88.4427 144.5062 1706207 250.1839  90.7899 11.30433754359664",
      "category": "satellite"
    },
    {
      "id": "4327",
      "name": "SERT 2",
      "noradId": 4327,
      "line1": "1 04327U 70009A   26167.30865157 -.00000006  00000+0  48888-4 0  9995",
      "line2": "2 04327  99.2841 105.0689 0003942 276.1893 199.3087 13.58739100793287",
      "category": "satellite"
    },
    {
      "id": "5118",
      "name": "SL-3 R/B",
      "noradId": 5118,
      "line1": "1 05118U 71028B   26167.16285159  .00044048  00000+0  36875-3 0  9993",
      "line2": "2 05118  81.2338 289.6237 0013969 283.7991  76.1711 15.69655763  4084",
      "category": "satellite"
    },
    {
      "id": "5560",
      "name": "ASTEX 1",
      "noradId": 5560,
      "line1": "1 05560U 71089A   26167.03775075  .00000379  00000+0  96261-4 0  9993",
      "line2": "2 05560  92.6998 183.4857 0017826 109.6746 250.6386 14.50851038876561",
      "category": "satellite"
    },
    {
      "id": "5730",
      "name": "SL-8 R/B",
      "noradId": 5730,
      "line1": "1 05730U 71119B   26167.25299504  .00002700  00000+0  14044-3 0  9996",
      "line2": "2 05730  73.8873 351.2135 0543767 297.3688  57.3126 14.39501650669669",
      "category": "satellite"
    },
    {
      "id": "6153",
      "name": "OAO 3 (COPERNICUS)",
      "noradId": 6153,
      "line1": "1 06153U 72065A   26167.13380056  .00000237  00000+0  52837-4 0  9993",
      "line2": "2 06153  35.0058  96.4066 0007286 247.5605 128.7640 14.60059824860596",
      "category": "satellite"
    },
    {
      "id": "6155",
      "name": "ATLAS CENTAUR R/B",
      "noradId": 6155,
      "line1": "1 06155U 72065B   26167.19696755  .00000955  00000+0  13266-3 0  9996",
      "line2": "2 06155  35.0012  88.3467 0032916 120.3858 240.0103 14.77919507855844",
      "category": "satellite"
    },
    {
      "id": "8459",
      "name": "SL-8 R/B",
      "noradId": 8459,
      "line1": "1 08459U 75112B   26167.27562916  .00000194  00000+0  72312-4 0  9994",
      "line2": "2 08459  74.0594 197.5509 0016869 264.6163  95.3066 14.38245877646049",
      "category": "satellite"
    },
    {
      "id": "10114",
      "name": "SL-3 R/B",
      "noradId": 10114,
      "line1": "1 10114U 77057B   26167.24735541  .00009418  00000+0  18285-3 0  9994",
      "line2": "2 10114  97.5832 343.7425 0005419 289.4334  70.6329 15.47866955683564",
      "category": "satellite"
    },
    {
      "id": "10967",
      "name": "SEASAT 1",
      "noradId": 10967,
      "line1": "1 10967U 78064A   26167.27121783  .00000202  00000+0  94819-4 0  9999",
      "line2": "2 10967 108.0171 332.3660 0001848 240.5085 119.5877 14.46242807520767",
      "category": "satellite"
    },
    {
      "id": "11267",
      "name": "SL-14 R/B",
      "noradId": 11267,
      "line1": "1 11267U 79011B   26167.03544280  .00000454  00000+0  42094-4 0  9998",
      "line2": "2 11267  82.5238   3.2474 0017525  89.0937 271.2290 14.92013409543449",
      "category": "satellite"
    },
    {
      "id": "11574",
      "name": "SL-8 R/B",
      "noradId": 11574,
      "line1": "1 11574U 79089B   26167.02590139  .00000177  00000+0  61277-4 0  9993",
      "line2": "2 11574  74.0694 269.0071 0014956  53.2140 307.0386 14.42403577450288",
      "category": "satellite"
    },
    {
      "id": "11672",
      "name": "SL-14 R/B",
      "noradId": 11672,
      "line1": "1 11672U 80005B   26167.18032985  .00000411  00000+0  38908-4 0  9995",
      "line2": "2 11672  82.5140 213.7954 0015404 189.2612 170.8326 14.91028242491164",
      "category": "satellite"
    },
    {
      "id": "12139",
      "name": "SL-8 R/B",
      "noradId": 12139,
      "line1": "1 12139U 81003B   26167.16095316  .00013874  00000+0  33909-3 0  9990",
      "line2": "2 12139  82.9361 198.7254 0250689 194.7673 164.6150 15.14198058329560",
      "category": "satellite"
    },
    {
      "id": "12465",
      "name": "SL-3 R/B",
      "noradId": 12465,
      "line1": "1 12465U 81046B   26167.28219585  .00009368  00000+0  20231-3 0  9995",
      "line2": "2 12465  81.2290 171.1593 0018643  40.7936 319.4699 15.44181069453631",
      "category": "satellite"
    },
    {
      "id": "12904",
      "name": "SL-3 R/B",
      "noradId": 12904,
      "line1": "1 12904U 81103B   26167.26520662  .00003706  00000+0  15966-3 0  9995",
      "line2": "2 12904  81.1592  97.7165 0011875 319.3391  40.6953 15.22280340988223",
      "category": "satellite"
    },
    {
      "id": "13068",
      "name": "SL-3 R/B",
      "noradId": 13068,
      "line1": "1 13068U 82013B   26167.23707249  .00002661  00000+0  11211-3 0  9991",
      "line2": "2 13068  81.1741  45.1734 0021307 204.1390 155.8847 15.22782194419348",
      "category": "satellite"
    },
    {
      "id": "13154",
      "name": "SL-3 R/B",
      "noradId": 13154,
      "line1": "1 13154U 82039B   26167.30619322  .00002992  00000+0  17835-3 0  9992",
      "line2": "2 13154  81.1446 102.1042 0028948 359.1649   0.9522 15.10534144396529",
      "category": "satellite"
    },
    {
      "id": "13403",
      "name": "SL-3 R/B",
      "noradId": 13403,
      "line1": "1 13403U 82079B   26167.26370176  .00003475  00000+0  13396-3 0  9994",
      "line2": "2 13403  81.1468  76.5799 0023615 188.6357 171.4475 15.25782852392726",
      "category": "satellite"
    },
    {
      "id": "13553",
      "name": "SL-14 R/B",
      "noradId": 13553,
      "line1": "1 13553U 82092B   26167.18773120  .00000360  00000+0  37567-4 0  9999",
      "line2": "2 13553  82.5682  49.2387 0019762 338.6536 138.5858 14.86747357343563",
      "category": "satellite"
    },
    {
      "id": "13819",
      "name": "SL-3 R/B",
      "noradId": 13819,
      "line1": "1 13819U 83010B   26167.28404187  .00012039  00000+0  21908-3 0  9997",
      "line2": "2 13819  81.1018 241.0770 0015581  65.4924 294.7945 15.49224372373196",
      "category": "satellite"
    },
    {
      "id": "14208",
      "name": "SL-3 R/B",
      "noradId": 14208,
      "line1": "1 14208U 83075B   26167.28951858  .00008053  00000+0  19966-3 0  9995",
      "line2": "2 14208  97.6097 175.7572 0019236 232.5085 127.4412 15.40479137345324",
      "category": "satellite"
    },
    {
      "id": "14699",
      "name": "COSMOS 1536",
      "noradId": 14699,
      "line1": "1 14699U 84013A   26166.98132323  .00005128  00000+0  20357-3 0  9992",
      "line2": "2 14699  82.5440  10.0462 0012694 300.2317  59.7663 15.25041191287591",
      "category": "satellite"
    },
    {
      "id": "14820",
      "name": "SL-14 R/B",
      "noradId": 14820,
      "line1": "1 14820U 84027B   26167.20494715  .00000367  00000+0  39079-4 0  9997",
      "line2": "2 14820  82.5411 152.6383 0018256  12.3608 347.8052 14.86059084262260",
      "category": "satellite"
    }
  ]
}